[{"OBJECT_NAME":"STARLINK-30775","OBJECT_ID":"2023-162X","EPOCH":"2026-03-09T22:00:01.999584","MEAN_MOTION":15.26756765,"ECCENTRICITY":0.00014114,"INCLINATION":42.9997,"RA_OF_ASC_NODE":130.6204,"ARG_OF_PERICENTER":247.4455,"MEAN_ANOMALY":289.7196,"EPHEMERIS_TYPE":0,"CLASSIFICATION_TYPE":"U","NORAD_CAT_ID":58139,"ELEMENT_SET_NO":999,"REV_AT_EPOCH":578,"BSTAR":-0.00038328822,"MEAN_MOTION_DOT":-0.00010532,"MEAN_MOTION_DDOT":0},{"OBJECT_NAME":"FENGYUN 1C DEB","OBJECT_ID":"1999-025DFV","EPOCH":"2026-03-08T16:36:39.334752","MEAN_MOTION":14.7561826,"ECCENTRICITY":0.02801674,"INCLINATION":99.0493,"RA_OF_ASC_NODE":138.4817,"ARG_OF_PERICENTER":72.5853,"MEAN_ANOMALY":290.5777,"EPHEMERIS_TYPE":0,"CLASSIFICATION_TYPE":"U","NORAD_CAT_ID":33684,"ELEMENT_SET_NO":999,"REV_AT_EPOCH":94255,"BSTAR":0.0012457497,"MEAN_MOTION_DOT":0.00016208,"MEAN_MOTION_DDOT":0}]
